{"type": "FeatureCollection", "features": [ {"type": "Feature", "properties": {"norad_id": 42738, "name": "QZS-2 (QZSS/PRN 194)", "group": "gnss", "lat": -16.917094936776046, "lon": -135.65503410201458, "alt_km": 34179.31990195815, "timestamp": "2025-12-19T22:41:52.634598+00:00", "meta": {"OBJECT_NAME": "QZS-2 (QZSS/PRN 194)", "OBJECT_ID": "2017-028A", "EPOCH": "2025-12-18T13:55:30.556128", "MEAN_MOTION": 1.00281517, "ECCENTRICITY": 0.07566042, "INCLINATION": 39.7045, "RA_OF_ASC_NODE": 245.7969, "ARG_OF_PERICENTER": 269.5406, "MEAN_ANOMALY": 282.9842, "EPHEMERIS_TYPE": 0, "CLASSIFICATION_TYPE": "U", "NORAD_CAT_ID": 42738, "ELEMENT_SET_NO": 999, "REV_AT_EPOCH": 581, "BSTAR": 0, "MEAN_MOTION_DOT": -1.25e-06, "MEAN_MOTION_DDOT": 0}, "tle": {"line1": "1 42738U 17028A   25352.58021477 -.00000125  00000+0  00000+0 0  9990", "line2": "2 42738  39.7045 245.7969 0756604 269.5406 282.9842  1.00281517  5810"}}, "geometry": {"type": "Point", "coordinates": [-135.65503410201458, -16.917094936776046]}}, {"type": "Feature", "properties": {"norad_id": 42917, "name": "QZS-3 (QZSS/PRN 199)", "group": "gnss", "lat": 0.0007980625728869665, "lon": -163.75793080057954, "alt_km": 35786.65364307733, "timestamp": "2025-12-19T22:41:52.634610+00:00", "meta": {"OBJECT_NAME": "QZS-3 (QZSS/PRN 199)", "OBJECT_ID": "2017-048A", "EPOCH": "2025-12-19T15:01:38.800992", "MEAN_MOTION": 1.00266281, "ECCENTRICITY": 0.0001813, "INCLINATION": 0.0257, "RA_OF_ASC_NODE": 176.0036, "ARG_OF_PERICENTER": 102.7321, "MEAN_ANOMALY": 162.1711, "EPHEMERIS_TYPE": 0, "CLASSIFICATION_TYPE": "U", "NORAD_CAT_ID": 42917, "ELEMENT_SET_NO": 999, "REV_AT_EPOCH": 3045, "BSTAR": 0, "MEAN_MOTION_DOT": 0, "MEAN_MOTION_DDOT": 0}, "tle": {"line1": "1 42917U 17048A   25353.62614353  .00000000  00000+0  00000+0 0  9999", "line2": "2 42917   0.0257 176.0036 0001813 102.7321 162.1711  1.00266281 30458"}}, "geometry": {"type": "Point", "coordinates": [-163.75793080057954, 0.0007980625728869665]}}, {"type": "Feature", "properties": {"norad_id": 42939, "name": "COSMOS 2522 (752)", "group": "gnss", "lat": 51.90656596889984, "lon": -123.63925871695848, "alt_km": 19139.58297118971, "timestamp": "2025-12-19T22:41:52.634622+00:00", "meta": {"OBJECT_NAME": "COSMOS 2522 (752)", "OBJECT_ID": "2017-055A", "EPOCH": "2025-12-18T22:15:40.453056", "MEAN_MOTION": 2.13102086, "ECCENTRICITY": 0.00063844, "INCLINATION": 64.0762, "RA_OF_ASC_NODE": 198.0182, "ARG_OF_PERICENTER": 224.0179, "MEAN_ANOMALY": 136.0111, "EPHEMERIS_TYPE": 0, "CLASSIFICATION_TYPE": "U", "NORAD_CAT_ID": 42939, "ELEMENT_SET_NO": 999, "REV_AT_EPOCH": 6413, "BSTAR": 0, "MEAN_MOTION_DOT": 1.07e-06, "MEAN_MOTION_DDOT": 0}, "tle": {"line1": "1 42939U 17055A   25352.92755154  .00000107  00000+0  00000+0 0  9996", "line2": "2 42939  64.0762 198.0182 0006384 224.0179 136.0111  2.13102086 64139"}}, "geometry": {"type": "Point", "coordinates": [-123.63925871695848, 51.90656596889984]}}, {"type": "Feature", "properties": {"norad_id": 42965, "name": "QZS-4 (QZSS/PRN 195)", "group": "gnss", "lat": -20.02516347940701, "lon": -168.6938506012672, "alt_km": 34016.76662390113, "timestamp": "2025-12-19T22:41:52.634636+00:00", "meta": {"OBJECT_NAME": "QZS-4 (QZSS/PRN 195)", "OBJECT_ID": "2017-062A", "EPOCH": "2025-12-18T12:29:45.417120", "MEAN_MOTION": 1.00251537, "ECCENTRICITY": 0.07515287, "INCLINATION": 40.2229, "RA_OF_ASC_NODE": 345.7974, "ARG_OF_PERICENTER": 271.6693, "MEAN_ANOMALY": 153.2789, "EPHEMERIS_TYPE": 0, "CLASSIFICATION_TYPE": "U", "NORAD_CAT_ID": 42965, "ELEMENT_SET_NO": 999, "REV_AT_EPOCH": 2999, "BSTAR": 0, "MEAN_MOTION_DOT": -3.37e-06, "MEAN_MOTION_DDOT": 0}, "tle": {"line1": "1 42965U 17062A   25352.52066455 -.00000337  00000+0  00000+0 0  9994", "line2": "2 42965  40.2229 345.7974 0751528 271.6693 153.2789  1.00251537 29996"}}, "geometry": {"type": "Point", "coordinates": [-168.6938506012672, -20.02516347940701]}}, {"type": "Feature", "properties": {"norad_id": 43001, "name": "BEIDOU-3 M1 (C19)", "group": "gnss", "lat": 53.927770014550376, "lon": -176.03277779397803, "alt_km": 21547.130355450077, "timestamp": "2025-12-19T22:41:52.634648+00:00", "meta": {"OBJECT_NAME": "BEIDOU-3 M1 (C19)", "OBJECT_ID": "2017-069A", "EPOCH": "2025-12-19T06:04:23.941632", "MEAN_MOTION": 1.86231412, "ECCENTRICITY": 0.0009566, "INCLINATION": 56.5322, "RA_OF_ASC_NODE": 69.0186, "ARG_OF_PERICENTER": 302.1864, "MEAN_ANOMALY": 57.7554, "EPHEMERIS_TYPE": 0, "CLASSIFICATION_TYPE": "U", "NORAD_CAT_ID": 43001, "ELEMENT_SET_NO": 999, "REV_AT_EPOCH": 5525, "BSTAR": 0, "MEAN_MOTION_DOT": -5.5e-07, "MEAN_MOTION_DDOT": 0}, "tle": {"line1": "1 43001U 17069A   25353.25305488 -.00000055  00000+0  00000+0 0  9993", "line2": "2 43001  56.5322  69.0186 0009566 302.1864  57.7554  1.86231412 55251"}}, "geometry": {"type": "Point", "coordinates": [-176.03277779397803, 53.927770014550376]}}, {"type": "Feature", "properties": {"norad_id": 43002, "name": "BEIDOU-3 M2 (C20)", "group": "gnss", "lat": 28.01607357474865, "lon": -131.52559943093283, "alt_km": 21542.796456649692, "timestamp": "2025-12-19T22:41:52.634659+00:00", "meta": {"OBJECT_NAME": "BEIDOU-3 M2 (C20)", "OBJECT_ID": "2017-069B", "EPOCH": "2025-12-19T04:35:39.539904", "MEAN_MOTION": 1.86231009, "ECCENTRICITY": 0.0006519, "INCLINATION": 56.532, "RA_OF_ASC_NODE": 69.0565, "ARG_OF_PERICENTER": 330.2695, "MEAN_ANOMALY": 29.7276, "EPHEMERIS_TYPE": 0, "CLASSIFICATION_TYPE": "U", "NORAD_CAT_ID": 43002, "ELEMENT_SET_NO": 999, "REV_AT_EPOCH": 5524, "BSTAR": 0, "MEAN_MOTION_DOT": -5.5e-07, "MEAN_MOTION_DDOT": 0}, "tle": {"line1": "1 43002U 17069B   25353.19142986 -.00000055  00000+0  00000+0 0  9999", "line2": "2 43002  56.5320  69.0565 0006519 330.2695  29.7276  1.86231009 55241"}}, "geometry": {"type": "Point", "coordinates": [-131.52559943093283, 28.01607357474865]}}, {"type": "Feature", "properties": {"norad_id": 43055, "name": "GSAT0215 (GALILEO 19)", "group": "gnss", "lat": -53.952675483071836, "lon": 119.70119090014123, "alt_km": 23227.73550879265, "timestamp": "2025-12-19T22:41:52.634672+00:00", "meta": {"OBJECT_NAME": "GSAT0215 (GALILEO 19)", "OBJECT_ID": "2017-079A", "EPOCH": "2025-12-18T08:21:56.206080", "MEAN_MOTION": 1.70474068, "ECCENTRICITY": 0.00012335, "INCLINATION": 55.1282, "RA_OF_ASC_NODE": 226.4832, "ARG_OF_PERICENTER": 345.8587, "MEAN_ANOMALY": 14.2435, "EPHEMERIS_TYPE": 0, "CLASSIFICATION_TYPE": "U", "NORAD_CAT_ID": 43055, "ELEMENT_SET_NO": 999, "REV_AT_EPOCH": 4990, "BSTAR": 0, "MEAN_MOTION_DOT": 6.2e-07, "MEAN_MOTION_DDOT": 0}, "tle": {"line1": "1 43055U 17079A   25352.34856720  .00000062  00000+0  00000+0 0  9999", "line2": "2 43055  55.1282 226.4832 0001233 345.8587  14.2435  1.70474068 49906"}}, "geometry": {"type": "Point", "coordinates": [119.70119090014123, -53.952675483071836]}}, {"type": "Feature", "properties": {"norad_id": 43056, "name": "GSAT0216 (GALILEO 20)", "group": "gnss", "lat": 54.23137577107161, "lon": -58.21633627026259, "alt_km": 23219.341767418315, "timestamp": "2025-12-19T22:41:52.634685+00:00", "meta": {"OBJECT_NAME": "GSAT0216 (GALILEO 20)", "OBJECT_ID": "2017-079B", "EPOCH": "2025-12-16T21:07:19.515072", "MEAN_MOTION": 1.70474167, "ECCENTRICITY": 0.00024195, "INCLINATION": 55.129, "RA_OF_ASC_NODE": 226.5236, "ARG_OF_PERICENTER": 322.2527, "MEAN_ANOMALY": 37.829, "EPHEMERIS_TYPE": 0, "CLASSIFICATION_TYPE": "U", "NORAD_CAT_ID": 43056, "ELEMENT_SET_NO": 999, "REV_AT_EPOCH": 4989, "BSTAR": 0, "MEAN_MOTION_DOT": 5.3e-07, "MEAN_MOTION_DDOT": 0}, "tle": {"line1": "1 43056U 17079B   25350.88008698  .00000053  00000+0  00000+0 0  9990", "line2": "2 43056  55.1290 226.5236 0002419 322.2527  37.8290  1.70474167 49893"}}, "geometry": {"type": "Point", "coordinates": [-58.21633627026259, 54.23137577107161]}}, {"type": "Feature", "properties": {"norad_id": 43057, "name": "GSAT0217 (GALILEO 21)", "group": "gnss", "lat": -41.595900853337504, "lon": -171.76970473274423, "alt_km": 23220.865678340542, "timestamp": "2025-12-19T22:41:52.634696+00:00", "meta": {"OBJECT_NAME": "GSAT0217 (GALILEO 21)", "OBJECT_ID": "2017-079C", "EPOCH": "2025-12-17T16:29:50.691264", "MEAN_MOTION": 1.70474088, "ECCENTRICITY": 0.00027909, "INCLINATION": 55.1268, "RA_OF_ASC_NODE": 226.4994, "ARG_OF_PERICENTER": 347.0606, "MEAN_ANOMALY": 13.035, "EPHEMERIS_TYPE": 0, "CLASSIFICATION_TYPE": "U", "NORAD_CAT_ID": 43057, "ELEMENT_SET_NO": 999, "REV_AT_EPOCH": 4989, "BSTAR": 0, "MEAN_MOTION_DOT": 5.8e-07, "MEAN_MOTION_DDOT": 0}, "tle": {"line1": "1 43057U 17079C   25351.68739226  .00000058  00000+0  00000+0 0  9993", "line2": "2 43057  55.1268 226.4994 0002790 347.0606  13.0350  1.70474088 49899"}}, "geometry": {"type": "Point", "coordinates": [-171.76970473274423, -41.595900853337504]}}, {"type": "Feature", "properties": {"norad_id": 43058, "name": "GSAT0218 (GALILEO 22)", "group": "gnss", "lat": 7.408921048116096, "lon": 41.24941683827938, "alt_km": 23227.54560449874, "timestamp": "2025-12-19T22:41:52.634707+00:00", "meta": {"OBJECT_NAME": "GSAT0218 (GALILEO 22)", "OBJECT_ID": "2017-079D", "EPOCH": "2025-12-19T01:56:03.752736", "MEAN_MOTION": 1.70474173, "ECCENTRICITY": 0.0002958, "INCLINATION": 55.1266, "RA_OF_ASC_NODE": 226.4587, "ARG_OF_PERICENTER": 305.073, "MEAN_ANOMALY": 55.0073, "EPHEMERIS_TYPE": 0, "CLASSIFICATION_TYPE": "U", "NORAD_CAT_ID": 43058, "ELEMENT_SET_NO": 999, "REV_AT_EPOCH": 4994, "BSTAR": 0, "MEAN_MOTION_DOT": 6.6e-07, "MEAN_MOTION_DDOT": 0}, "tle": {"line1": "1 43058U 17079D   25353.08059899  .00000066  00000+0  00000+0 0  9990", "line2": "2 43058  55.1266 226.4587 0002958 305.0730  55.0073  1.70474173 49943"}}, "geometry": {"type": "Point", "coordinates": [41.24941683827938, 7.408921048116096]}}]}